ORBCOMM-X               
1 21576U 91050C   24181.77114217  .00000779  00000+0  24778-3 0  9995
2 21576  98.3891 248.7928 0004140 154.7744 205.3649 14.42570080731294
ORBCOMM FM01            
1 23545U 95017A   24181.84039104  .00007172  00000+0  93831-3 0  9999
2 23545  69.9662 226.8428 0004398 174.3609 185.7591 14.80785135560172
ORBCOMM FM02            
1 23546U 95017B   24181.88206654  .00009457  00000+0  12433-2 0  9996
2 23546  69.9682 246.2477 0005735 154.9367 205.2062 14.80450367559823
ORBCOMM FM08            
1 25112U 97084A   24181.66916969  .00002569  00000+0  80429-3 0  9994
2 25112  45.0139 256.5245 0009523 266.1344  93.8418 14.42852513390403
ORBCOMM FM10            
1 25113U 97084B   24181.88735795  .00002884  00000+0  89979-3 0  9994
2 25113  45.0151 257.3820 0007193 245.3235 114.6867 14.42751558565585
ORBCOMM FM11            
1 25114U 97084C   24181.70271191  .00002607  00000+0  81963-3 0  9999
2 25114  45.0137 258.3748 0007974 244.1688 115.8340 14.42620184390525
ORBCOMM FM12            
1 25115U 97084D   24181.66377625  .00002668  00000+0  83842-3 0  9999
2 25115  45.0143 258.2740 0006983 244.7516 115.2611 14.42582748390314
ORBCOMM FM09            
1 25116U 97084E   24181.60711181  .00002763  00000+0  86741-3 0  9990
2 25116  45.0151 259.2462 0007878 232.8713 127.1418 14.42547343390518
